STARLINK-2022           
1 47643U 21012Z   24015.20023706  .00023593  00000+0  15973-2 0  9990
2 47643  53.0546 333.3327 0001447  90.4967 269.6188 15.06403803162025
